IRIDIUM 7 [-]           
1 24793U 97020B   24074.89504499  .00000545  00000+0  18429-3 0  9998
2 24793  86.4018   9.3004 0002111  92.8605 267.2833 14.35114196406001
IRIDIUM 4 [-]           
1 24796U 97020E   24074.89274796  .00000608  00000+0  20267-3 0  9998
2 24796  86.4016   6.4868 0002039  85.8633 274.2797 14.36030873406535
IRIDIUM 914 [-]         
1 24836U 97030A   24074.89738728  .00000675  00000+0  20886-3 0  9995
2 24836  86.3984  16.4265 0001088  30.3162 329.8100 14.39870430541012
IRIDIUM 16 [-]          
1 24841U 97030F   24074.94384846  .00000697  00000+0  22535-3 0  9992
2 24841  86.4046  38.1331 0003985 109.4841 250.6788 14.37754282400991
IRIDIUM 911 [-]         
1 24842U 97030G   24074.94781407  .00000890  00000+0  24222-3 0  9997
2 24842  86.4473  37.3378 0014055 179.0633 181.0599 14.46350638408677
IRIDIUM 17 [-]          
1 24870U 97034B   24074.92302249  .00000620  00000+0  20317-3 0  9995
2 24870  86.3913  67.7764 0003891  84.3112 275.8529 14.36841987397615
IRIDIUM 920 [-]         
1 24871U 97034C   24074.89716361  .00000633  00000+0  19233-3 0  9995
2 24871  86.3965  48.0749 0012553 147.1983 212.9998 14.40568360400430
